"slug","state_mode","url_validated","director_name","email","url","contact","phone","lat","lng","transport_lat","transport_lng","youtube_id","published","country_id","logo_id","cover_id","created_by","updated_by","created_at"
festival-international-de-folklore-de-argentina-brinkmann,offline,false,"",intendencia@brinkmann.gov.ar,www.cioffargentina.org.ar,,+54 3562 480962,,,,,,true,9,,,84,,2024-09-28 23:46:04.804
folklorama,offline,false,"",chidalgo-mazzei@folklorama.ca,www.folklorama.ca,,+1-204-982 6210,,,,,,true,35,,,84,,2024-09-28 23:46:04.804
festival-de-montoire-les-cultures-du-monde,offline,false,"",festival.montoire@orange.fr,www.festival-montoire.com,,+33-2-5485.3516,,,,,,true,66,,,84,,2024-09-28 23:46:04.804
internationale-jugendfestwoche-auf-der-wewelsburg,offline,false,"",luenzb@kreis-paderborn.de,www.festwoche.de/de,,+49-5251-308 5120,,,,,,true,3,,,84,,2024-09-28 23:46:04.804
festival-internacional-de-danza-de-san-jos-iturbide-gto,offline,false,"",cererik@hotmail.com,"",,"4191982593",,,,,,true,117,,,84,,2024-09-28 23:46:04.804
international-folklore-festival-dani-caske-puracic,offline,false,"",danicaske.puracic@gmail.com,http://kudpuracic.ba/    https://www.facebook.com/KUD-Puracic t,,+38761196215,,,,,,true,24,,,84,,2024-09-28 23:46:04.804
grand-prix-der-folklore-fr-kinder,offline,false,"",mecklenburger_folkloreensemble@online.de,www.folklore-ribnitz.de,,+49-3821-812 311,,,,,,true,3,,,84,,2024-09-28 23:46:04.804
festival-internacional-del-folklore-el-mundo-danza-en-tlaxcala,offline,false,"",ballet_tierrajoven@msn.com,https://www.facebook.com/elmundodanzaentlax.of/,,"",,,,,,true,117,,,84,,2024-09-28 23:46:04.804
miedzynarodowy-festiwal-folkloru-strzegom,offline,false,"",sck@sck.strzegom.pl,www.strzgom.pl/pl/strony/kultura/festival.htm,,+48-74-649 4401,,,,,,true,140,,,84,,2024-09-28 23:46:04.804
festival-international-de-folklore-en-el-seguracieza,offline,false,"",festival@corosydanzascieza.com,www.corosydanzascieza.com,,"",,,,,,true,59,,,84,,2024-09-28 23:46:04.804
international-folklore-festival-myjava,offline,false,"",cioffslovensko@gmail.com,http://www.mffmyjava.sk,,"",,,,,,true,57,,,84,,2024-09-28 23:46:04.804
international-cioff-folklore-festival-folkart-maribor,offline,false,"",alenka.klemencic@nd-mb.si,www.festival-lent.si,,+386-2-229 4067,,,,,,true,58,,,84,,2024-09-28 23:46:04.804
festival-folklrico-internacional-de-extremadura,offline,false,"",corosydanzasbadajoz@hotmail.com,www.asociacioncorosydanzasbadajoz.com,,"",,,,,,true,59,,,84,,2024-09-28 23:46:04.804
jornadas-folclricas-nazarenas-internacionales,offline,false,"",grupodanzasdoshermanas@gmail.com,"",,"",,,,,,true,59,,,84,,2024-09-28 23:46:04.804
mostra-internacional-de-dansa-popular,offline,false,"",esantmarcal@gmail.com,www.esbartsantmarcal.com,,"",,,,,,true,59,,,84,,2024-09-28 23:46:04.804
festival-internacional-de-folclore-ciudad-de-burgos,offline,false,"",folcloreburgos@gmail.com,www.folcloreburgos.net,,+34-947 262 684,,,,,,true,59,,,84,,2024-09-28 23:46:04.804
festival-internacional-de-folclore-de-ciudad-real,offline,false,"",info@grupomazantini.com,www.grupomazantini.com,,"",,,,,,true,59,,,84,,2024-09-28 23:46:04.804
world-folkfest,offline,false,"",Internationaldirector@worldfolkfest.org,www.worldfolkfest.org,,+1-801-427-7953,,,,,,true,60,,,84,,2024-09-28 23:46:04.804
festival-international-de-folklore-cultures-et-traditions-du-monde-de-romans,offline,false,"",empi.et.riaume26@gmail.com,www.empi-et-riaume.com,,+33-4-7502 3052,,,,,,true,66,,,84,,2024-09-28 23:46:04.804
festival-internacional-de-folclore-en-el-mediterrneo,offline,false,"",oficinafestivales@ayto-murcia.es,"",,+34.968 35 87 19 - Ext.39509-39507,,,,,,true,59,,,84,,2024-09-28 23:46:04.804
mostra-folklrica-internacional-popular-de-viveiro,offline,false,"",bagoasdaterra@gmail.com,www.bagoasdaterra.com,,+34 982 560 444,,,,,,true,59,,,84,,2024-09-28 23:46:04.804
festival-internacional-de-folklore-villa-de-ingenio-muestra-solidaria-de-los-pueblos,offline,false,"",dcastellano@ingenio.es,www.folkloredeingenio.com,,+34-928- 786194,,,,,,true,59,,,84,,2024-09-28 23:46:04.804
gala-folklrica-internacional-de-ronda,offline,false,"",folkloreronda@gmail.com,https://www.facebook.com/galafolkloricaderonda /https://www.instagram.com/corosydanzasronda/,,+34-952-87 82 64,,,,,,true,59,,,84,,2024-09-28 23:46:04.804
encuentro-internacional-de-folklore-ciudad-de-zaragoza-eifolk,offline,false,"",eifolk@eifolk.com,www.eifolk.com,,"",,,,,,true,59,,,84,,2024-09-28 23:46:04.804
internationale-begegnungswoche,offline,false,"",info@vtg-laggenbeck.de,www.vtg-laggenbeck.de,,"",,,,,,true,3,,,84,,2024-09-28 23:46:04.804
national-cultural-childrens-meeting-karditsa,offline,false,"",karagounakarditsa@hotmail.com,"",,+30-4410-22 166,,,,,,true,72,,,84,,2024-09-28 23:46:04.804
rassegna-internazionale-del-folklore-castiglione-del-lago,offline,false,"",agillatrasimeno@libero.it,www.cioff-italia.org,,+39 075 953 683,,,,,,true,90,,,84,,2024-09-28 23:46:04.804
international-folklore-festival-hoogstraten,offline,false,"",info@gelmelzwaaiers.be,www.gelmelzwaaiers.be,,"",,,,,,true,18,,,84,,2024-09-28 23:46:04.804
the-international-folklore-festival-eurofolk-zamosc,offline,false,"",zpitzam@interia.pl,https://zamojszczyzna.com.pl/eurofolk/,,"00 48-84 639 20 21",,,,,,true,140,,,84,,2024-09-28 23:46:04.804
miedzynarodowe-olsztynskie-dni-folkloru-warmia-olsztyn,offline,false,"",zpitwarmia@poczta.onet.pl,"",,+48-89-526 4938,,,,,,true,140,,,84,,2024-09-28 23:46:04.804
festival-internacional-encuentro-costumbrista-de-pealolen,offline,false,"",mfierroy@gmail.com,www.antauco.cl,,"56224868377",,,,,,true,38,,,84,,2024-09-28 23:46:04.804
ftes-de-la-vigne-de-dijon,offline,false,"",contact@tradculture.fr,www.fetesdelavigne.org,,+33 - 3.80.30.37.95,,,,,,true,66,,,84,,2024-09-28 23:46:04.804
finnougrian-days,offline,false,"",fennougria@fennougria.ee,www.fennougria.ee,,"",,,,,,true,61,,,84,,2024-09-28 23:46:04.804
international-folk-meetings-malopolska,offline,false,"",festival@myslenice.pl,www.festival.myslenice.pl,,+4812 2721511,,,,,,true,140,,,84,,2024-09-28 23:46:04.804
intern-folklore-festival-pestisorul-de-aur-children-folklore-festival,offline,false,"",ansamblulartistic@yahoo.com,www.baladeledelteitulcea.ro,,+40-240-532 599,,,,,,true,151,,,84,,2024-09-28 23:46:04.804
international-childrens-folklore-festival-childrens-folkart,offline,false,"",neva.kovacic@jskd.si,http://www.festival-lent.si/,,+386-2-234 2114,,,,,,true,58,,,84,,2024-09-28 23:46:04.804
festival-internacional-de-folklore-ciudad-de-lorca,offline,false,"",corosydanzaslorca@gmail.com,www.corosydanzasdelorca.com,,+34 607 366 702,,,,,,true,59,,,84,,2024-09-28 23:46:04.804
hora-of-ancestors-international-folklore-festival,offline,false,"",cultura@cjcpctvs.ro,https://www.facebook.com/centrulculturiitraditionale.vaslui,,"0040335-401166",,,,,,true,151,,,84,,2024-09-28 23:46:04.804
encuentro-regional-infantil-de-folklore,offline,false,"",ehalcoba@gmail.com,www.cioffargentina.org.ar,,"54 358 4702591",,,,,,true,9,,,84,,2024-09-28 23:46:04.804
festival-mondial-de-folklore-de-la-ville-de-saintghislain,offline,false,"",festifolk@skynet.be,www.festifolk.be,,+32-65-621 974,,,,,,true,18,,,84,,2024-09-28 23:46:04.804
werelddansfestival-helloschoten,offline,false,"",info@helloschoten.be,www.helloschoten.be,,"",,,,,,true,18,,,84,,2024-09-28 23:46:04.804
internationaal-folkloristisch-oogstfeest-de-pikkeling,offline,false,"",harvestfestival@de-pikkeling.be,www.de-pikkeling.be,,+32 53 77 70 40,,,,,,true,18,,,84,,2024-09-28 23:46:04.804
wereldfestival-dans-en-muziek-kadans-torhout,offline,false,"",kadans.festival@gmail.com,www.ka-dans.be,,"",,,,,,true,18,,,84,,2024-09-28 23:46:04.804
festival-mondial-de-folklore-de-jambesnamur,offline,false,"",secretariat@festifolkambes.be,www.festifolkjambes.be,,"",,,,,,true,18,,,84,,2024-09-28 23:46:04.804
bonheidansfestival-iff-bonheiden,offline,false,"",walter_casteels@skynet.be,https://www.dekrekels.be/en/festival-int/,,"00 32 (0) 15 51 56 49",,,,,,true,18,,,84,,2024-09-28 23:46:04.804
veliko-tarnovo-international-folklore-festival,offline,false,"",info@cioff-bulgaria.com,www.folklorefest.com,,+359 879 401195,,,,,,true,28,,,84,,2024-09-28 23:46:04.804
internationales-hahnentanzfest,offline,false,"",mayer-suessen@t-online.de,www.albverein-suessen.de,,+49 7162-7733,,,,,,true,3,,,84,,2024-09-28 23:46:04.804
international-folklore-festival-brno-brno,offline,false,"",mff.brno@centrum.cz,www.folklornet.cz/mff,,"",,,,,,true,144,,,84,,2024-09-28 23:46:04.804
international-folklore-festival-neighbours,offline,false,"",cioff-slovenia@cioff.org,www.zltss.si,,"",,,,,,true,58,,,84,,2024-09-28 23:46:04.804
international-bagpipe-festival-strakonice-strakonice,offline,false,"",meks@strakonice.cz,www.dudackyfestival.cz,,+420-383-311 530,,,,,,true,144,,,84,,2024-09-28 23:46:04.804
interfolk-du-puy-en-velay,offline,false,"",interfolk@gmail.com,www.interfolk.fr,,+33-4-7102 0284,,,,,,true,66,,,84,,2024-09-28 23:46:04.804
festival-mondialfolk-de-plozevet,offline,false,"",info@mondialfolk.org,www.mondialfolk.bzh,,"",,,,,,true,66,,,84,,2024-09-28 23:46:04.804
festival-de-gannat-les-cultures-du-monde,offline,false,"",informations@gannat.com,www.lesculturesdumonde.org,,+33-4-7090.6630,,,,,,true,66,,,84,,2024-09-28 23:46:04.804
festival-cultures-aux-curs-montignac,offline,false,"",a-l-m2@wanadoo.fr,www.festivaldemontignac.fr,,+33-5-5351 8688,,,,,,true,66,,,84,,2024-09-28 23:46:04.804
festival-du-rouergue-cultures-du-monde,offline,false,"",ffir@wanadoo.fr,"",,+33.5.65.46.84.27,,,,,,true,66,,,84,,2024-09-28 23:46:04.804
festival-danses-et-musiques-du-monde-amlie-les-bains,offline,false,"",festivaldamelielesbains@gmail.com,www.festivaldamelielesbains66.com,,+33-04 68 39 20 76,,,,,,true,66,,,84,,2024-09-28 23:46:04.804
thringer-tanzfest,offline,false,"",info@tanzverband.de,www.tanzverband.de,,+49-361-644-12974,,,,,,true,3,,,84,,2024-09-28 23:46:04.804
heimatfieber-wein-folklore-genuss,offline,false,"",info@kroev.de,www.kroev.de  +  www.trachtentreffen.de,,+49-6541-9486,,,,,,true,3,,,84,,2024-09-28 23:46:04.804
europisches-folklorefestival-bitburg,offline,false,"",Noe.M@stadt.bitburg.de,www.bitburg.de; www.folklore-bitburg.de,,+49-6561-6001 240,,,,,,true,3,,,84,,2024-09-28 23:46:04.804
internationales-folklorefestival-lausitz,offline,false,"",folklorefestival-lausitz@sorben.com,www.domowina.de; www.folklorefestival-lausitz.de,,+49-3591-550 206,,,,,,true,3,,,84,,2024-09-28 23:46:04.804
internationales-folklorefestival-danetzare,offline,false,"",info@tfe-erfurt.de,www.tfe-erfurt.de; www.danetzare.de,,+49-361-421 3499,,,,,,true,3,,,84,,2024-09-28 23:46:04.804
festival-internacional-de-folklore-de-argentina-melincu,offline,false,"",sentimientocriollosc@gmail.com,"",,+54 3465 499343,,,,,,true,9,,,84,,2024-09-28 23:46:04.804
faank-folklore-festival-shrovetide-tradition,offline,false,"","",www.strani.cz,,"",,,,,,true,144,,,84,,2024-09-28 23:46:04.804
international-folklore-festival-strnice-strnice,offline,false,"",info@nulk.cz,www.festivalstraznice.cz,,+420-518-306 630,,,,,,true,144,,,84,,2024-09-28 23:46:04.804
europische-jugendwoche-burg-ludwigstein,offline,false,"",eurowoche@goebel-versicherungsmakler.de,www.eurowoche.org,,+49-6427-930666,,,,,,true,3,,,84,,2024-09-28 23:46:04.804
international-folklore-festival-cioff-frdek-mstek,offline,false,"",info@folklornifestivalfm.cz,https://www.folklornifestivalfm.cz/,,"",,,,,,true,144,,,84,,2024-09-28 23:46:04.804
edmonton-heritage-festival,offline,false,"",admin@heritagefest.ca,Heritagefest.ca,,"1-780-488-3378",,,,,,true,35,,,84,,2024-09-28 23:46:04.804
festival-internazionale-del-folklore-flavio-fiorletta-alatri,offline,false,"",culturaeturismo@comune.alatri.fr.it,"",,+39 0775 448378,,,,,,true,90,,,84,,2024-09-28 23:46:04.804
festival-of-folk-culture-pobrazenje-vevcani,offline,false,"",kud.drimkol@gmail.com,http://kuddrimkol.mk,,+389 (0) 75/425-250,,,,,,true,145,,,84,,2024-09-28 23:46:04.804
international-children-festival-skoci-kolo-da-skocimo,offline,false,"",emindjecevic@yahoo.com,"",,+38269924314,,,,,,true,122,,,84,,2024-09-28 23:46:04.804
international-folk-festival-cetinje,offline,false,"",kudnjegos@gmail.com,"",,+382 69 810360,,,,,,true,122,,,84,,2024-09-28 23:46:04.804
international-and-national-folk-festival-akovacki-vezovi,offline,false,"",tz-grada-djakova@os.t-com.hr,www.tzdjakovo.eu,,+385-31-812-319,,,,,,true,48,,,84,,2024-09-28 23:46:04.804
mostra-folclrica-internacional-infantil-popular-de-viveiro,offline,false,"",bagoasdaterra@gmail.com,www.bagoasdaterra.com,,+34.982.560.444,,,,,,true,59,,,84,,2024-09-28 23:46:04.804
silistra-international-childrens-dance-festival-tomorrows-peace-begins-with-todays-friendship,offline,false,"",kultura_ss@abv.bg,"",,+359 86 816 258,,,,,,true,28,,,84,,2024-09-28 23:46:04.804
summerfest-international-folklore-festival-and-folkart-fair,offline,false,"",sziq@mail.battanet.hu,http://summerfestbatta.hu/,,"",,,,,,true,80,,,84,,2024-09-28 23:46:04.804
children-gamesinternational-children-folk-festival,offline,false,"",oss.busevec@oss-busevec.hr,www.oss-busevec.hr,,"",,,,,,true,48,,,84,,2024-09-28 23:46:04.804
aspettando-la-sagra-festival-internazionale-del-folklore-nuoro,offline,false,"",info@amicidelfolklore.it,www.cioff-italia.org,,"",,,,,,true,90,,,84,,2024-09-28 23:46:04.804
festival-internazionale-del-folklore-citt-di-bitonto,offline,false,"",repambanelle@libero.it,www.cioff-italia.org,,"",,,,,,true,90,,,84,,2024-09-28 23:46:04.804
festival-internazionale-del-folclore-roccalumera,offline,false,"",natalefranzone@hotmail.com,www.cioff-italia.org,,+39 0942 744 254,,,,,,true,90,,,84,,2024-09-28 23:46:04.804
festival-internacional-del-almojabano-con-queso,offline,false,"",academia21corella@hotmail.com,"",,"",,,,,,true,136,,,84,,2024-09-28 23:46:04.804
taskopru-international-culture-and-garlic-festival2024-festival-was-cancelled-due-to-municipality-elections,offline,false,"",cioffturk@gmail.com,"",,"05323513969",,,,,,true,182,,,84,,2024-09-28 23:46:04.804
sivrihisar-international-nasreddin-hodja-culture-and-art-festival,offline,false,"",cioffturk@gmail.com,"",,"05323513969",,,,,,true,182,,,84,,2024-09-28 23:46:04.804
festival-nacional-de-bailes-folklricos-cioff-panam,offline,false,"",edanhanchi@hotmail.com,"",,"396-9856",,,,,,true,136,,,84,,2024-09-28 23:46:04.804
estate-internazionale-del-folklore-castrovillari,offline,false,"",estatedelfolklore@gmail.com,www.estateinternazionaledelfolklore.it,,+39 0981 27696,,,,,,true,90,,,84,,2024-09-28 23:46:04.804
international-folklore-festival-neighbours,offline,false,"",presidente@cioff-italia.org,www.cioff-italia.org,,+39 0771 658600,,,,,,true,90,,,84,,2024-09-28 23:46:04.804
international-dance-music-festival-op-roakeldais,offline,false,"",d.kloosterhuis@oproakeldais.nl,www.oproakeldais.nl,,"",,,,,,true,133,,,84,,2024-09-28 23:46:04.804
international-festival-folklore-kotor,offline,false,"",info@iffkotor.me,www.iffkotor.me,,+38268300811,,,,,,true,122,,,84,,2024-09-28 23:46:04.804
mediterranean-international-folklore-festival-za-jubav-tance-igrae,offline,false,"",kud.antezaninovic@gmail.com,"",,"",,,,,,true,48,,,84,,2024-09-28 23:46:04.804
grand-prix-der-folklore,offline,false,"",mecklenburger_folkloreensemble@online.de,www.folklore-ribnitz.de,,+49-3821 812 311,,,,,,true,3,,,84,,2024-09-28 23:46:04.804
world-festival-ambert,offline,false,"",contact@festival-ambert.fr,www.festival-ambert.fr,,+33-4-73 82 66 34,,,,,,true,66,,,84,,2024-09-28 23:46:04.804
tanz-und-musikfest,offline,false,"",info@werrataler.de,www.werrataler.de,,"",,,,,,true,3,,,84,,2024-09-28 23:46:04.804
festival-internacional-del-terere,offline,false,"",cioff.paraguay@gmail.com,"",,"0983791168",,,,,,true,138,,,84,,2024-09-28 23:46:04.804
international-folklore-festival-baltica,offline,false,"",baltica@folkloorinoukogu.ee,www.baltica.ee,,"",,,,,,true,61,,,84,,2024-09-28 23:46:04.804
international-folklore-festival-ronovsk-slavnosti-ronov-pod-radhotem,offline,false,"",muzeum@vmp.cz,www.vmp.cz,,+420-571-757 111,,,,,,true,144,,,84,,2024-09-28 23:46:04.804
latium-world-folkloric-festival-cori,offline,false,"",latiumfestival@yahoo.it,www.latiumfestival.it,,"",,,,,,true,90,,,84,,2024-09-28 23:46:04.804
europisches-folklore-festival,offline,false,"",office@folklore-festival-neustadt.de,www.folklore-festival-neustadt.de,,+49-4561- 3582,,,,,,true,3,,,84,,2024-09-28 23:46:04.804
international-folklore-festival-cioffpyrsosnaoussa-naoussa,offline,false,"",pyrsosnaousa@gmail.com,http://www.pyrsos-naoussa.gr/,,+30 2332026100,,,,,,true,72,,,84,,2024-09-28 23:46:04.804
international-folkore-festival-traditiondancefriendship-ioannina,offline,false,"",kalarrytes.gatzoyas@gmail.com,"",,"",,,,,,true,72,,,84,,2024-09-28 23:46:04.804
international-cioff-folklore-festival-pierides-musses-katerini,offline,false,"",inter.pm.ff@gmail.com,"",,-,,,,,,true,72,,,84,,2024-09-28 23:46:04.804
festival-delle-torri-cava-de-tirreni,offline,false,"",info@sbandieratori-cavensi.com,www.cioff-italia.org,,+39-089-343 363,,,,,,true,90,,,84,,2024-09-28 23:46:04.804
festival-internazionale-del-folklore-avianopiancavallo,offline,false,"",segreteria@prolocoaviano.it,www.cioff-italia.org,,"",,,,,,true,90,,,84,,2024-09-28 23:46:04.804
festival-internazionale-del-folklore-citt-di-fondi,offline,false,"",luigi.divito57@gmail.com,www.cioff-italia.org,,+39 0771 502184,,,,,,true,90,,,84,,2024-09-28 23:46:04.804
festival-dei-cuori-tarcento,offline,false,"",info@festivaldeicuori.it,www.cioff-italia.org,,+39-0432- 793 147,,,,,,true,90,,,84,,2024-09-28 23:46:04.804
momenti-di-folklore-internazionale-agrigento,offline,false,"",mimmocanino@tin.it,www.cioff-italia.org,,+39 0922 401 595,,,,,,true,90,,,84,,2024-09-28 23:46:04.804
festival-mondiale-del-folklore-castello-di-gorizia-gorizia,offline,false,"",info@etnosgorizia.it,www.cioff-italia.org,,+39 0481 535 415,,,,,,true,90,,,84,,2024-09-28 23:46:04.804
folklores-du-monde-de-saint-malo,offline,false,"",gerard.besnard751@orange.fr,www.folkloresdumonde.bzh,,+33-2+33 2 99 88 52 66,,,,,,true,66,,,84,,2024-09-28 23:46:04.804
national-costumes-and-clothing-heritage-festival-kamnik,offline,false,"",doroteja.narat@kamnik-tourism.si,www.kamnik-tourism.si,,+38618318250,,,,,,true,58,,,84,,2024-09-28 23:46:04.804
international-folklore-festival-zagreb,offline,false,"",msf@msf.hr,www.mfs.hr,,+385-1-6601-626,,,,,,true,48,,,84,,2024-09-28 23:46:04.804
bug-river-folklore-festival,offline,false,"",nsf@sokolowskakultura.pl,www.nsf-festiwal.pl,,+ 48 - 25 787 24 38,,,,,,true,140,,,84,,2024-09-28 23:46:04.804
international-folklore-festival-kashubian-meetings-with-the-folklore-of-world,offline,false,"",ckbbrusy@wp.pl,www.ckibbrusy.pl,,+48-52-3969330,,,,,,true,140,,,84,,2024-09-28 23:46:04.804
festival-internacional-de-folclore-rio,offline,false,"",gfbarcelinhos@gmail.com,www.gfbarcelinhos.com,,+351-253-833 838,,,,,,true,141,,,84,,2024-09-28 23:46:04.804
incontro-internazionale-del-folklore-isa-bionda-tempio-pausania,offline,false,"",folktempio@tiscali.it,www.cioff-italia.org,,+39 347 935 5204,,,,,,true,90,,,84,,2024-09-28 23:46:04.804
festarte-festival-internacional-de-artes-e-tradioes-populares-de-matosinhos,offline,false,"",festarte.rta@gmail.com,http://festarte.wixsite.com/ranchotipicoamorosa,,+351229952908,,,,,,true,141,,,84,,2024-09-28 23:46:04.804
festival-celestino-graa-a-festa-das-artes-e-das-tradies-populares-do-mundo,offline,false,"",fest.int.folk.santarem@hotmail.com,https://www.facebook.com/gracademico.dancasribatejanas,,+351.243.333.822,,,,,,true,141,,,84,,2024-09-28 23:46:04.804
nazioarteko-folklore-jaialda-portugalete,offline,false,"",elai-alai@elai-alai.eus,www.elai-alai.com,,+34-944-723 419,,,,,,true,59,,,84,,2024-09-28 23:46:04.804
festival-folklorico-de-los-pirineos,offline,false,"",oficina@festivaljaca.es,www.festivaljaca.es,,+34-974-355758,,,,,,true,59,,,84,,2024-09-28 23:46:04.804
xornadas-de-folclore-de-ourense,offline,false,"",xornadasfolclore@depourense.es,www.ccpxaquinlorenzo@depourense.es,,+34-988-317880,,,,,,true,59,,,84,,2024-09-28 23:46:04.804
festival-international-de-msica-y-danza-popular-de-avils,offline,false,"",funsabugo@telecable.es,"",,"",,,,,,true,59,,,84,,2024-09-28 23:46:04.804
festival-internacional-de-folclore-cidade-da-corua,offline,false,"",festival@corosedanzaseidos.com,www.corosedanzaseidos.com,,+34-981-221 169,,,,,,true,59,,,84,,2024-09-28 23:46:04.804
festival-international-de-danzas-de-villablanca,offline,false,"",festivaldanzasvillablanca@gmail.com,www.festivaldevillablanca.es,,+34-959 340 017,,,,,,true,59,,,84,,2024-09-28 23:46:04.804
jornades-internacionals-folklriques-de-catalunya,offline,false,"",jif.catalunya@adifolk.cat,www.adifolk.cat,,+34-933 025 017,,,,,,true,59,,,84,,2024-09-28 23:46:04.804
festival-folclrico-internacional-la-esteva,offline,false,"",laesteva@hotmail.com,www.laesteva.es,,+34-609-922 409,,,,,,true,59,,,84,,2024-09-28 23:46:04.804
childrens-folk-festival-kunovsk-lto-kunovice,offline,false,"",romana.habartova@seznam.cz,www.kunovske-leto.cz,,"",,,,,,true,144,,,84,,2024-09-28 23:46:04.804
international-folklore-festivaldoina-aiudului,offline,false,"",moldovannicolae1809@gmail.com,www.aiud.ro,,"0040258861357",,,,,,true,151,,,84,,2024-09-28 23:46:04.804
paasfeesten-leuven-easterfestival-leuven,offline,false,"",paasfeesten@gmail.com,www.paasfeestenleuven.be,,"",,,,,,true,18,,,84,,2024-09-28 23:46:04.804
the-international-folklore-festival-ozarow-mazowiecki,offline,false,"",sekretariat@dkusmiech.eu,"",,(+48) 22 722 14 45,,,,,,true,140,,,84,,2024-09-28 23:46:04.804
festival-internacional-de-msica-danza-y-canciones-populares-folk-del-mundo,offline,false,"",asociacion.lolatorres@gmail.com,www.lolatorres.es,,"",,,,,,true,59,,,84,,2024-09-28 23:46:04.804
dobrich-international-festival-folklore-without-borders,offline,false,"",info@cioff-bulgaria.com,http://www.dobrich.bg/en/info_pages/461-the-festivals-of-dobrich,,+359879401191,,,,,,true,28,,,84,,2024-09-28 23:46:04.804
international-childrens-and-youth-folkloric-ensembles-festival,offline,false,"",festivaldorna@gmail.com,"",,"0040230371369",,,,,,true,151,,,84,,2024-09-28 23:46:04.804
folk-azores-festival-internacional-de-foclore-dos-aores,offline,false,"",info@cofit.org,www.cofit.org,,+351 295 212 975,,,,,,true,141,,,84,,2024-09-28 23:46:04.804
folk-dance-festival-ilinden-days,offline,false,"",vsoklevski@gmail.com,ilindenskidenovi.com,,"0038971252132",,,,,,true,145,,,84,,2024-09-28 23:46:04.804
intern-folklore-und-trachtenfest-schwalenberg,offline,false,"",info@trachtengilde-schwalenberg.de,www.trachtengilde-schwalenberg.de,,+49 5284 - 942377,,,,,,true,3,,,84,,2024-09-28 23:46:04.804
karsiyaka-municipality-international-childrens-festival-2024-festival-was-cancelled-due-to-municipality-elections,offline,false,"",kyakakultur@gmail.com,www.karsiyakafest.com,,+ 90-232 399 40 83,,,,,,true,182,,,84,,2024-09-28 23:46:04.804
international-folk-festival-karlovac,offline,false,"",mff.karlovac@gmail.com,www.mff-karlovac.com,,"",,,,,,true,48,,,84,,2024-09-28 23:46:04.804
ivz-internationales-volkstanztreffen-zrich,offline,false,"",info@volkstanztreffen.ch,www.volkstanztreffen.ch,,+41-34-446 0050,,,,,,true,171,,,84,,2024-09-28 23:46:04.804
festival-internazionale-del-folklore-terranostra-apiro,offline,false,"",terranostra@festivalterranostra.net,www.cioff-italia.org,,+39 0733 613048,,,,,,true,90,,,84,,2024-09-28 23:46:04.804
royal-days-international-folk-dance-festival,offline,false,"",royaldaysfestival@gmail.com,www.kiralyinapok.hu,,+36 22 312 79,,,,,,true,80,,,84,,2024-09-28 23:46:04.804
ballus-incontro-internazionale-del-folklore-uta,offline,false,"",ballus.folkfestival@tiscali.it,www.cioff-italia.org,,"",,,,,,true,90,,,84,,2024-09-28 23:46:04.804
festival-nacional-de-folklore-ciudad-de-jumilla,offline,false,"",fnfjumilla@fnfjumilla.com,www.fnfjumilla.com,,+34 606.005.904,,,,,,true,59,,,84,,2024-09-28 23:46:04.804
dorkovo-international-festival-for-authentik-folklore,offline,false,"",info@cioff-bulgaria.com,www.dorkovo.alle.bg,,+359 3543 327,,,,,,true,28,,,84,,2024-09-28 23:46:04.804
les-couleurs-du-monde-de-pujols,offline,false,"",festivaldepujols@gmail.com,www.festivaldepujols47.com,,"",,,,,,true,66,,,84,,2024-09-28 23:46:04.804
festival-internazionale-del-folklore-matelica,offline,false,"",assfolkmatelica@virgilio.it,www.cioff-italia.org,,+39 0737 787171,,,,,,true,90,,,84,,2024-09-28 23:46:04.804
jurjevanje-folklore-festival-crnomelj,offline,false,"",info@jurjevanje.si,www.jurjevanje.si,,+3867-305-6530,,,,,,true,58,,,84,,2024-09-28 23:46:04.804
festival-international-de-folklore-valle-de-mena,offline,false,"",cultura@valledemena.es,"",,+34-947 126 211,,,,,,true,59,,,84,,2024-09-28 23:46:04.804
cime-celebrations-interculturelles-de-la-montagne-evolene,offline,false,"",info@cime-evolene.ch,www.cime-evolene.ch,,"",,,,,,true,171,,,84,,2024-09-28 23:46:04.804
international-festival-of-advent-and-christmas-traditions-carols-and-handicrafts-souzneni-ostrava,offline,false,"",tofel.zdenek@o2active.cz,www.souzneni-festival.cz,,"",,,,,,true,144,,,84,,2024-09-28 23:46:04.804
europisches-dudelsackfestival,offline,false,"",info@folkstanzfestival.de,www.schwaben-kultur.de,,+49-7433-4353,,,,,,true,3,,,84,,2024-09-28 23:46:04.804
festival-caput-mundi-roma,offline,false,"",agmario2@libero.it,www.cioff-italia.org,,+39-06 812 6349,,,,,,true,90,,,84,,2024-09-28 23:46:04.804
rudolstadtfestival,offline,false,"",info@rudolstadt-festival.de,www.rudolstadt-festival.de,,+49-3672-486 460,,,,,,true,3,,,84,,2024-09-28 23:46:04.804
funchal-folk-arraial-do-mundo,offline,false,"",geral@gfmonteverde.com,https://www.gfmonteverde.com/fpt/findex.php,,"",,,,,,true,141,,,84,,2024-09-28 23:46:04.804
folkmono-o-mundo-a-danar,offline,false,"",folkmoncao@gmail.com,www.folkmoncao.com,,+351 917 348 324,,,,,,true,141,,,84,,2024-09-28 23:46:04.804
international-festival-of-traditional-music-instruments,offline,false,"",oss.busevec@zg.t-com.hr,www.oss-busevec.hr,,+385 1 6255 001; +385 98 829 907,,,,,,true,48,,,84,,2024-09-28 23:46:04.804
international-folklore-festival-inter-folk-fest-bosiljkovanje-derventa,offline,false,"",kudmbosiljak@yahoo.com,kudmbosiljak@yahoo.com,,"00 387-53-331 833",,,,,,true,24,,,84,,2024-09-28 23:46:04.804
festival-international-dissoire-danses-et-musiques-du-monde,offline,false,"",secretariat@festival-issoire.fr,"",,+33-4-7389-9285,,,,,,true,66,,,84,,2024-09-28 23:46:04.804
mercuria-festival-de-folklore-international-dargenton-sur-creuse,offline,false,"",chriztoff@hotmail.fr,www.festivalmercuria.fr,,"",,,,,,true,66,,,84,,2024-09-28 23:46:04.804
sile-folk-treviso,offline,false,"",silefolkfestival@gmail.com,www.cioff-italia.org,,"",,,,,,true,90,,,84,,2024-09-28 23:46:04.804
intern-folklore-festival-festivalul-inimilor,offline,false,"",office@ccmt.ro,https://www.casadeculturatm.ro/,,+40-256-498 214,,,,,,true,151,,,84,,2024-09-28 23:46:04.804
festival-mondial-des-cultures-du-monde-de-chambry,offline,false,"",rdemarchi73@gmail.com,www.festivalchambery.com,,"",,,,,,true,66,,,84,,2024-09-28 23:46:04.804
razgrad-international-festival-of-national-traditions-and-art-crafts,offline,false,"",info@cioff-bulgaria.com,www.tic-razgrad.com,,+35928650137,,,,,,true,28,,,84,,2024-09-28 23:46:04.804
international-chilfren-folklore-festival-mladost,offline,false,"",m.folkmusicagenci@blic.net,www.anipmladost.com,,+387 51 921 326,,,,,,true,24,,,84,,2024-09-28 23:46:04.804
festival-internacional-de-folklore-de-argentina-crespo,offline,false,"",afla@live.com.ar,www.cioffargentina.org.ar,,+54 343,,,,,,true,9,,,84,,2024-09-28 23:46:04.804
dupnica-international-folklore-festival-of-the-modified-national-dances-rila-ni-gleda-rila-is-watching-us,offline,false,"",info@cioff-bulgaria.com,http://rilanigleda.com/,,+359 701 5 2430,,,,,,true,28,,,84,,2024-09-28 23:46:04.804
festival-dalenon-danses-et-musiques-du-monde,offline,false,"",gandon.michel@orange.fr,www.lesfolkloresdumonde.fr,,+33 2 33 27 41 05,,,,,,true,66,,,84,,2024-09-28 23:46:04.804
festival-vallarta-azteca-del-folklor-internacional,offline,false,"",festivalvallarta_azteca@hotmail.com,https://www.facebook.com/FESTVA,,"",,,,,,true,117,,,84,,2024-09-28 23:46:04.804
light-and-fire-cioff-israel-4th-online-international-folklore-festival,offline,false,"",cioff-israel@cioff.org,"",,"",,,,,,true,89,,,84,,2024-09-28 23:46:04.804
internationales-dudelsackfestival-schleife,offline,false,"",bergbau@sorben.com,www.dudelsackfestival-schleife.com,,+49 3577 376154,,,,,,true,3,,,84,,2024-09-28 23:46:04.804
villacher-brauchtumswochen-kirchtag,offline,false,"",johann.presslinger@villach.at,http://www.villacherkirchtag.at/,,+43 4242 205 6600,,,,,,true,12,,,84,,2024-09-28 23:46:04.804
viii-festival-internacional-pueblos-hermanos,offline,false,"",cioffperu.relacionespublicas@gmail.com,"",,"",,,,,,true,139,,,84,,2024-09-28 23:46:04.804
maleshevo-iff-maleshevo-sings-and-dances-mikrevo,offline,false,"",maleshevopee@gmail.com,"www.strumyani.org , www.strumyani.eu",,+ 359 07434/ 31-08;,,,,,,true,28,,,84,,2024-09-28 23:46:04.804
sofia-international-childrens-folklore-festival,offline,false,"",info@cioff-bulgaria.com,www.festivalsofia.com,,+35928650137,,,,,,true,28,,,84,,2024-09-28 23:46:04.804
international-childrens-folklore-festival-regratov-cvet-stare,offline,false,"",marjan.malek55@gmail.com,"",,"",,,,,,true,58,,,84,,2024-09-28 23:46:04.804
international-folk-dance-festival-sinies-corfu-sinies-corfu,offline,false,"",garnelis@otenet.gr,http://www.siniesculture.gr/,,"0030 6945740438",,,,,,true,72,,,84,,2024-09-28 23:46:04.804
macadanse,offline,false,"",denis.pipart@gmail.com,www.macadanse.be,,"",,,,,,true,18,,,84,,2024-09-28 23:46:04.804
festival-des-cultures-du-monde-de-gmnos,offline,false,"",lapoulidodegemo@yahoo.fr,www.lapoulidodegemo.com,,"",,,,,,true,66,,,84,,2024-09-28 23:46:04.804
magic-valley-folk-festival,offline,false,"",Magicvalleyfolkfestival@gmail.com,"",,"",,,,,,true,60,,,84,,2024-09-28 23:46:04.804
incontro-internazionale-del-folklore-taurano,offline,false,"",atti.graziano@gmail.com,www.cioff-italia.org,,"",,,,,,true,90,,,84,,2024-09-28 23:46:04.804
kozara-ethno-international-folklore-festival,offline,false,"",mladen.sukalo@banjaluka-tourism.com,www.kozaraethno.com   https://www.facebook.com/kozaraethno/,,+387 65 581 031,,,,,,true,24,,,84,,2024-09-28 23:46:04.804
the-international-folklore-festival-hora-mare,offline,false,"",ccp_il@yahoo.com,http://www.culturalcl.ro,,"0040242314925",,,,,,true,151,,,84,,2024-09-28 23:46:04.804
international-children-folklore-festival-soncenca,offline,false,"",dimitrovski_adv@yahoo.com,"",,"00 389 75 420 047",,,,,,true,145,,,84,,2024-09-28 23:46:04.804
international-folklore-festival-klatovy,offline,false,"",KrejcovaSarka.Klatovy@seznam.cz,www.mffklatovy.cz,,"",,,,,,true,144,,,84,,2024-09-28 23:46:04.804
international-folk-festival-istibanjsko-zdravozivo,offline,false,"",fakitka@gmail.com,"",,"00 389 70 523 147",,,,,,true,145,,,84,,2024-09-28 23:46:04.804
festival-du-houblon-haguenau,offline,false,"",osl@agglo-haguenau.fr,www.festivalduhoublon.eu,,+33-3.88.73.30.41,,,,,,true,66,,,84,,2024-09-28 23:46:04.804
international-folklore-festival-cioff-frdekmstek,offline,false,"",zuzmoj@email.cz,www.ostravicka.cz,,"",,,,,,true,144,,,84,,2024-09-28 23:46:04.804
international-festival,offline,false,"",tam@tanzschule-altmark.de,www.fitschebeen.de,,+49390136832,,,,,,true,3,,,84,,2024-09-28 23:46:04.804
billingham-international-folklore-festival-of-world-dance,offline,false,"",info@billinghamfestival.co.uk,www.billinghamfestival.com,,+441642 553220,,,,,,true,142,,,84,,2024-09-28 23:46:04.804
folklore-festival-cvetovi-skopje,offline,false,"",nikolajonkovvapcarov@yahoo.com,"",,"00 389 70 325 746",,,,,,true,145,,,84,,2024-09-28 23:46:04.804
international-folklore-festival-of-salamina,offline,false,"",lykeiohellinidonsalaminas@hotmail.com,International Folklore Festival of Salamina (Facebook) & iffsalamina (Instagram),,+30 6984320706,,,,,,true,72,,,84,,2024-09-28 23:46:04.804
international-culture-manifestation-days-of-iljo,offline,false,"",iljoanteskismok@yahoo.com,"",,"",,,,,,true,145,,,84,,2024-09-28 23:46:04.804
festival-international-de-folklore-la-farandole-nice,offline,false,"",stan@palomba.fr,www.loucat.fr,,"",,,,,,true,66,,,84,,2024-09-28 23:46:04.804
sharjah-heritage-days,offline,false,"",shaikha.alali@sih.gov.ae,www.sih.gov.ae,,"009716502666",,,,,,true,55,,,84,,2024-09-28 23:46:04.804
tsarevets-folklore-festival-folklore-wellspring,offline,false,"",folklorenizvor@gmail.com,www.folklorenizvor.com,,+ 35963292610,,,,,,true,28,,,84,,2024-09-28 23:46:04.804
international-folklore-festival-tak-sme-this-is-us,offline,false,"",folklor@roslevice.sk,"",,"00421 918 949 538",,,,,,true,57,,,84,,2024-09-28 23:46:04.804
internation-folklore-festival-epivatiana,offline,false,"",zoizach5@gmail.com,http://www.ps-neiepivates.gr/el,,+30 2392025095,,,,,,true,72,,,84,,2024-09-28 23:46:04.804
thermaikos-yoyth-folk-national-festival,offline,false,"",zoizach5@gmail.com,http://www.ps-neiepivates.gr/el,,+30 2392025095,,,,,,true,72,,,84,,2024-09-28 23:46:04.804
international-folk-festival-silesia,offline,false,"",anna.mroz@zespolslask.pl,www.zespolslask.pl,,+48-34-3106405,,,,,,true,140,,,84,,2024-09-28 23:46:04.804
festival-internacional-de-folklore-de-zamora,offline,false,"",grupodonsancho@gmail.com,www.donsancho.org,,"",,,,,,true,59,,,84,,2024-09-28 23:46:04.804
folk-cinfes-arts-e-danas-do-mundo,offline,false,"",folkcinfaes@cantascramoiscinfaes.org,www.cantascramoiscinfaes.org,,"",,,,,,true,141,,,84,,2024-09-28 23:46:04.804
bojonegoro-thengul-international-folklore-festival-2021,offline,false,"",sayrachmat@yahoo.com,"",,+62215657882,,,,,,true,82,,,84,,2024-09-28 23:46:04.804
surabaya-cross-culture-international-folk-and-art-festival-2021,offline,false,"",sayrachmat@yahoo.com,"",,+62215657882,,,,,,true,82,,,84,,2024-09-28 23:46:04.804
tenggarong-international-folk-art-festival-2021,offline,false,"",sayrachmat@yahoo.com,"",,+62215657882,,,,,,true,82,,,84,,2024-09-28 23:46:04.804
festival-of-folk-arts-budapest,offline,false,"",neszfolk@nesz.hu,www.mestersegekunnepe.hu,,+36 1-214-3523,,,,,,true,80,,,84,,2024-09-28 23:46:04.804
grand-prix-der-folklore-fr-jugendliche,offline,false,"",mecklenburger_folkloreensemble@online.de,www.folklore-ribnitz.de,,+49-3821-812 311,,,,,,true,3,,,84,,2024-09-28 23:46:04.804
buyukcekmece-municipality-international-culture-and-art-festival,offline,false,"","",http://www.buyukcekmecefest.com,,"",,,,,,true,182,,,84,,2024-09-28 23:46:04.804
festival-internacional-msica-y-danza-del-mundo-panam,offline,false,"",edanhanchi@hotmail.com,"",,+507 3969856,,,,,,true,136,,,84,,2024-09-28 23:46:04.804
cofa-festival,offline,false,"",petra@electus-agencija.hr,"",,"",,,,,,true,48,,,84,,2024-09-28 23:46:04.804
yeongdong-world-traditional-music-and-arts-festival,offline,false,"",korea2012@gmail.com,https://yd21.go.kr/en/html/sub04/0401.html,,+821022513716,,,,,,true,45,,,84,,2024-09-28 23:46:04.804
nyrsg-international-folk-dance-festival,offline,false,"",nyirsegfestival@gmail.com,https://nyirsegtanc.hu,,"",,,,,,true,80,,,84,,2024-09-28 23:46:04.804
dancing-shavuot-the-spring-online-festival-of-cioff-israel,offline,false,"",cioff-israel@cioff.org,https://www.youtube.com/results?search_query=cioff+israel,,"",,,,,,true,89,,,84,,2024-09-28 23:46:04.804
les-nuits-de-montseveroux,offline,false,"",joffray_poizat@outlook.fr,www.lesnuitsdemontseveroux.fr,,"07.48.10.42.04",,,,,,true,66,,,84,,2024-09-28 23:46:04.804
anseong-namsadang-baudeogi-festival,offline,false,"",korea2012@gmail.com,"",,+821022513716,,,,,,true,45,,,84,,2024-09-28 23:46:04.804
sennorifolkfestival-sennori,offline,false,"",gruppofolksennori@tiscali.it,www.cioff-italia.org,,"",,,,,,true,90,,,84,,2024-09-28 23:46:04.804
yeongdong-world-traditional-music-and-arts-expo,offline,false,"",korea2012@gmail.com,"",,"",,,,,,true,45,,,84,,2024-09-28 23:46:04.804
international-folklor-festival-kozarsko-kolo,offline,false,"",sormaz.zeljko76@gmail.com,www.tradicijaprijedor.org,,+387 65 536 579,,,,,,true,24,,,84,,2024-09-28 23:46:04.804
folklore-festival-of-cioff-bh-members-for-a-living-tradition,offline,false,"",info@cioff.ba,info@cioff.ba,,+387 61 170 777,,,,,,true,24,,,84,,2024-09-28 23:46:04.804
international-folklore-festival-beltinci,offline,false,"",kud.beltinci@guest.arnes.si,www.kud-beltnci.si,,"",,,,,,true,58,,,84,,2024-09-28 23:46:04.804
international-folklore-festival-mining-light-senovo-slovenia-rude-croatia,offline,false,"",fssenovo@gmail.com,"",,"",,,,,,true,58,,,84,,2024-09-28 23:46:04.804
china-shenzhen-international-folk-art-week,offline,false,"",cioffchinaofficial@gmail.com,"",,+8613911117609,,,,,,true,39,,,84,,2024-09-28 23:46:04.804
ccf-international-folk-dance-festival,offline,false,"",charucastle@gmail.com,WWW.CHARUCASTLEFOUNDATION.IN,,"",,,,,,true,81,,,84,,2024-09-28 23:46:04.804
festival-internacional-de-folklore-de-argentina-carlos-pellegrini,offline,false,"",silvinamolineris13@gmail.com,https://cioffargentina.ar/,,"",,,,,,true,9,,,84,,2024-09-28 23:46:04.804
"36-festival-internacional-de-folclore-de-caruaru",offline,false,"",marco@iidac.org,https://forms.gle/1yPVsw79yjcGdVkx8,,"5562991373898",,,,,,true,26,,,84,,2024-09-28 23:46:04.804
i-international-folklore-festival-of-rio-grande-do-sul-brazil,offline,false,"",marco@iidac.org,https://forms.gle/1yPVsw79yjcGdVkx8,,"5562991373898",,,,,,true,26,,,84,,2024-09-28 23:46:04.804
international-folk-festival-iz-bakine-krinje,offline,false,"",sesicn@gmail.com,"",,-,,,,,,true,48,,,84,,2024-09-28 23:46:04.804
international-folklore-festival-split,offline,false,"",folklorefestivalsplit@gmail.com,"",,-,,,,,,true,48,,,84,,2024-09-28 23:46:04.804
international-foklore-festival-mining-light,offline,false,"",etnostudio@gmail.com,"",,-,,,,,,true,48,,,84,,2024-09-28 23:46:04.804
festin-folk-corredoura-o-mundo-dana-em-guimaress,offline,false,"",festinfolkcorredoura@gmail.com,https://www.facebook.com/festinfolkcorredoura,,+351914535867,,,,,,true,141,,,84,,2024-09-28 23:46:04.804
festifolk-ponte-de-sor,offline,false,"",festifolkpontesor@gmail.com,https://www.facebook.com/FestiFolkPortugal/?locale=pt_BR,,festifolkpontesor@gmail.com,,,,,,true,141,,,84,,2024-09-28 23:46:04.804
pazardzhik-dance-open,offline,false,"",pazardzhikdanceopen@gmail.com,https://linktr.ee/pazardzhikdanceopen,,"",,,,,,true,28,,,84,,2024-09-28 23:46:04.804
international-folklore-festival-veles,offline,false,"",iff_veles@yahoo.com,"",,"0038971237556",,,,,,true,145,,,84,,2024-09-28 23:46:04.804
folklandia-cruise,offline,false,"",info@sottiisi.net,https://folklandia.fi/in-english/,,+358-3-2122 147,,,,,,true,64,,,84,,2024-09-28 23:46:04.804
radnevo-international-folklore-festival-of-instrumental-and-dance-groups,offline,false,"",info@cioff-bulgaria.com,https://www.facebook.com/obcknv.radnevo,,"+359 898 432813 *Viber, WhatsApp, Telegram",,,,,,true,28,,,84,,2024-09-28 23:46:04.804
feria-internacional-de-artesania,offline,false,"","","",,+506 8362 1727,,,,,,true,47,,,84,,2024-09-28 23:46:04.804
international-folkfest,offline,false,"","",https://mboro-international-folkfest.org/index.html,,"615.896.3559",,,,,,true,60,,,84,,2024-09-28 23:46:04.804
veliki-preslav-folklore-festival-petrovska-kitka,offline,false,"",info@cioff-bulgaria.com,"",,+359879401191,,,,,,true,28,,,84,,2024-09-28 23:46:04.804
international-folk-festival-polka,offline,false,"",radoslaw.kierzek@iffpolka.pl,https://www.facebook.com/share/2jyAWL6m2kRZGftJ/,,"",,,,,,true,140,,,84,,2024-09-28 23:46:04.804
festival-international-de-folklore-de-argentina-santa-fe,offline,false,"",betysangoy@gmail.com,www.cioffargentina.org.ar,,+54 342 4554035,,,,,,true,9,,,84,,2024-09-28 23:46:04.804
wereldfestival-izegem,offline,false,"",groups@wereldfestival.be,www.wereldfestival.be,,"",,,,,,true,18,,,84,,2024-09-28 23:46:04.804
international-folklorefestival-westerlo,offline,false,"",festival@diespelewei.be,festival.diespelewei.be,,"",,,,,,true,18,,,84,,2024-09-28 23:46:04.804
varna-international-folklore-festival,offline,false,"",info@cioff-bulgaria.com,www.varnafolk.org,,+359879401191,,,,,,true,28,,,84,,2024-09-28 23:46:04.804
balingen-international,offline,false,"",festival@volkstanzgruppe.de,www.balingen.international.de,,+49-7433-4353,,,,,,true,3,,,84,,2024-09-28 23:46:04.804
internationales-beekefestival,offline,false,"",info@beekscheepers.de,www.beeke-festival.de,,+49-4263-6759946,,,,,,true,3,,,84,,2024-09-28 23:46:04.804
internationale-brunlinger-kilbig,offline,false,"",mueller@trachtenbund-braeunlingen.de,www.trachtenbund-braeunlingen.de,,+49-771-64697,,,,,,true,3,,,84,,2024-09-28 23:46:04.804
international-cioff-folkore-festival-sun-and-stone-nea-karvali,offline,false,"",info@stegi-karvalis.gr,www.stegi-karvalis.gr,,+30-2510-316 192  +30-2510-31664,,,,,,true,72,,,84,,2024-09-28 23:46:04.804
folk-anacapri-festival-del-sud-pontino,offline,false,"",festivalminturno@tiscali.it,www.cioff-italia.org,,+39-0771-658 600,,,,,,true,90,,,84,,2024-09-28 23:46:04.804
international-folklore-meetings-lublin,offline,false,"",kaniorowcy@lublin.net.pl,www.zpit.lublin.pl,,+48-81-5327 843,,,,,,true,140,,,84,,2024-09-28 23:46:04.804
beskidy-highlanders-week-of-culture-bielskobiala,offline,false,"",tkb@rok.bielsko.pl,www.rok.bielsko.pl,,+48-33-812 5276,,,,,,true,140,,,84,,2024-09-28 23:46:04.804
figulinas-festival-florinas,offline,false,"",figulchessa@tiscali.it,www.cioff-italia.org,,"",,,,,,true,90,,,84,,2024-09-28 23:46:04.804
festimaiorca-festival-internacional-de-folclore-de-maiorca,offline,false,"",festimaiorca@hotmail.com,https://www.facebook.com/festimaiorca/,,+351 233930144,,,,,,true,141,,,84,,2024-09-28 23:46:04.804
festival-de-folclore-internacional-alto-minho,offline,false,"",vianafestas@vianafestas.com,http://vianafestas.com/pt/eventos-e-romarias/xviii-festival-de-folclore-internacional-alto-minho,,"00 351 258 809 394",,,,,,true,141,,,84,,2024-09-28 23:46:04.804
international-folklore-festival-floare-de-pe-baragan,offline,false,"",ccp_il@yahoo.com,www.traditieialomita.ro,,+40-243-231 151,,,,,,true,151,,,84,,2024-09-28 23:46:04.804
rfi-rencontres-de-folklore-internationales-de-fribourg,offline,false,"",artistique@rfi.ch,www.rfi.ch,,"",,,,,,true,171,,,84,,2024-09-28 23:46:04.804
holiday-folk-fair-international,offline,false,"",evazquez@iiwisconsin.org,www.folkfair.org,,"",,,,,,true,60,,,84,,2024-09-28 23:46:04.804
festival-of-the-children-of-mountains-nowy-sacz,offline,false,"",sdg@mcksokol.pl,www.mcksokol.pl,,+48-18-448 26 10,,,,,,true,140,,,84,,2024-09-28 23:46:04.804
international-folklore-festival-folklore-without-boundaries-ostrava,offline,false,"",festival@fbho.cz,www.folklorbezhranic.cz,,+420 604 993 513,,,,,,true,144,,,84,,2024-09-28 23:46:04.804
international-folklore-festival-in-novohrad,offline,false,"",poliacikova@noslc.sk,http://www.noslc.sk/index_subory/mnff19.htm,,+421474512703,,,,,,true,57,,,84,,2024-09-28 23:46:04.804
international-children-folklore-meetings-lublin,offline,false,"",kaniorowcy@lublin.net.pl,https://zpit.lublin.pl/pl/festiwal/o-festiwalu/,,+48-81-532 7843,,,,,,true,140,,,84,,2024-09-28 23:46:04.804
international-folklore-vistula-festival-plock,offline,false,"",piotr@bastion.com.pl,www.vistulaff.pl,,+48-24-3671920,,,,,,true,140,,,84,,2024-09-28 23:46:04.804
rassegna-internazionale-del-folklore-moles-aeterna-moliterno,offline,false,"",folkmoliterno@gmail.com,www.cioff-italia.org,,+39 0975 67553,,,,,,true,90,,,84,,2024-09-28 23:46:04.804
world-folk-review-integration,offline,false,"",festival@awf.poznan.pl,www.festival.awf.poznan.pl,,"48-61-8355434",,,,,,true,140,,,84,,2024-09-28 23:46:04.804
festival-internacional-de-folklor-de-hidalgo,offline,false,"",folk_hidalgo@yahoo.com.mx,https://m.facebook.com/Festival-Internacional-De-Folklor-De-Hidalgo-124492611054680/,,+52-775-1122774,,,,,,true,117,,,84,,2024-09-28 23:46:04.804
spectacles-du-monde-portsursane,offline,false,"",jeanpascalmariot@gmail.com,www.festivalportsursaone.com,,+33384781066,,,,,,true,66,,,84,,2024-09-28 23:46:04.804
romolo-folk-fest-santa-teresa-di-riva,offline,false,"",romolofolk@gmail.com,www. cioff-italia.org,,+39 334 281 9274,,,,,,true,90,,,84,,2024-09-28 23:46:04.804
folkfaro-folclore-internacional-cidade-de-faro,offline,false,"",grupofaro@hotmail.com,https://www.facebook.com/grupo.folcloricodefaro/,,+351 962556599,,,,,,true,141,,,84,,2024-09-28 23:46:04.804
festival-internazionale-del-folklore-incontro-di-cultura-popolare-macerata,offline,false,"",pistacoppi@virgilio.it,www.cioff-italia.org,,+39 0733 34800,,,,,,true,90,,,84,,2024-09-28 23:46:04.804
internationales-schlitzerlnder-trachtenfest,offline,false,"",k.hohmeier-cioff@gmx.de,www.schlitzer-trachtenfest.de,,"49-172-6233973",,,,,,true,3,,,84,,2024-09-28 23:46:04.804
folk-cantanhede-semana-internacional-de-folclore,offline,false,"",cancioneirodecantanhede@gmail.com,http://www.folkcantanhede.com/,,"",,,,,,true,141,,,84,,2024-09-28 23:46:04.804
international-folklore-festival-cantecele-muntilor,offline,false,"",contact@juniisibiului.ro,www.juniisibiului.ro,,+40-269-210 945,,,,,,true,151,,,84,,2024-09-28 23:46:04.804
international-folklore-festival-doina-covurluiului,offline,false,"",folkfestival_galati@ccdj.ro,www.ccdj.ro,,"0040236418400",,,,,,true,151,,,84,,2024-09-28 23:46:04.804
vru-folklore-festival,offline,false,"",info@vorufolkloor.ee,http://www.vorufolkloor.ee/en/,,+372 514 1323,,,,,,true,61,,,84,,2024-09-28 23:46:04.804
international-cioff-folklore-festival-kyparissia-sunshine,offline,false,"",kyparissiasunshine@gmail.com,http://mesk.gr/,,+30 2761024943,,,,,,true,72,,,84,,2024-09-28 23:46:04.804
festivalul-international-de-folclor-muzici-si-traditii-in-bucuresti,offline,false,"",comunicare@creart.ro,www.creart.ro,,+4 0213183804,,,,,,true,151,,,84,,2024-09-28 23:46:04.804
ii-fifat-festival-internacional-de-folclore-e-artes-tradicionais-do-centro-oeste,offline,false,"",marco@iidac.org,https://forms.gle/1yPVsw79yjcGdVkx8,,"55.62.991373898",,,,,,true,26,,,84,,2024-09-28 23:46:04.804
festidanses-du-monde,offline,false,"",president@cigalouns-morcenx.com,www.cigalouns-morcenx.com,,"",,,,,,true,66,,,84,,2024-09-28 23:46:04.804
festival-internacional-del-folklor-universitario-tamaulipas,offline,false,"",g_carlosmocteg@hotmail.com,https://www.facebook.com/culturayarteUAT,,"834 3124668",,,,,,true,117,,,84,,2024-09-28 23:46:04.804
international-folklore-festival-plaiurile-mioritei,offline,false,"",buzaufestival@yahoo.com,www.centruldeculturasiarta.ro,,"0040238710383",,,,,,true,151,,,84,,2024-09-28 23:46:04.804
butinle-in-stajareincontro-della-cultura-popolare-europea-buja,offline,false,"",presidente@balarinsdibuje.it,www.cioff-italia.org,,"",,,,,,true,90,,,84,,2024-09-28 23:46:04.804
international-23rd-april-children-festival,offline,false,"",cioff-cyprus-northern-part@cioff.org,"",,+903923712521,,,,,,true,196,,,84,,2024-09-28 23:46:04.804
international-iskele-municipality-folk-dance-festival,offline,false,"",ozlemkadiraga@gmail.com,http:www.iskelehalkdanslari.com,,+903923712521,,,,,,true,196,,,84,,2024-09-28 23:46:04.804
international-goctas-folk-dance-festival,offline,false,"",ozlemkadiraga@gmail.com,"",,+903923712521,,,,,,true,196,,,84,,2024-09-28 23:46:04.804
yilan-intern-childrens-folklore-folkgame-festival-yicfff,offline,false,"",yicf1996@gmail.com,www.yicfff.tw,,+886-3-9359176,,,,,,true,195,,,84,,2024-09-28 23:46:04.804
les-foliklores-de-segr,offline,false,"",jo.bouvet@orange.fr,www.foliklores.fr,,"",,,,,,true,66,,,84,,2024-09-28 23:46:04.804
